NORAD_CAT_ID,OBJECT_NAME,OBJECT_TYPE,EPOCH,MEAN_MOTION,ECCENTRICITY,INCLINATION,RA_OF_ASC_NODE,ARG_OF_PERICENTER,MEAN_ANOMALY,BSTAR,MEAN_MOTION_DOT,MEAN_MOTION_DDOT,TLE_LINE0,TLE_LINE1,TLE_LINE2,SEMIMAJOR_AXIS,PERIOD,APOGEE,PERIGEE,DECAYED
51991.0,STARLINK-3652,PAYLOAD,2023-09-25 19:21:36,15.08850867,0.0001286,53.2154,100.897,84.9553,275.1586,0.0001885,2.714e-05,0.0,0 STARLINK-3652,1 51991U 22025AM  23268.80667174  .00002714  00000-0  18850-3 0  9995,2 51991  53.2154 100.8970 0001286  84.9553 275.1586 15.08850867 85817,6917.847,95.437,540.602,538.823,0.0
51991.0,STARLINK-3652,PAYLOAD,2023-09-26 12:50:51,15.0883548,0.0001507,53.2145,97.6269,71.9981,288.1176,-7.1794e-06,-4.02e-06,0.0,0 STARLINK-3652,1 51991U 22025AM  23269.53532022 -.00000402  00000-0 -71794-5 0  9991,2 51991  53.2145  97.6269 0001507  71.9981 288.1176 15.08835480 85923,6917.894,95.438,540.802,538.717,0.0
51991.0,STARLINK-3652,PAYLOAD,2023-09-26 17:37:01,15.08833552,0.0001316,53.2153,96.734,87.3326,272.7816,-2.9632e-05,-7.59e-06,0.0,0 STARLINK-3652,1 51991U 22025AM  23269.73404101 -.00000759  00000-0 -29632-4 0  9997,2 51991  53.2153  96.7340 0001316  87.3326 272.7816 15.08833552 87047,6917.9,95.438,540.675,538.855,0.0
51991.0,STARLINK-3652,PAYLOAD,2023-09-26 19:12:24,15.08835106,0.0001318,53.2153,96.4365,86.885,273.2293,8.6963e-06,-1.5e-06,0.0,0 STARLINK-3652,1 51991U 22025AM  23269.80028077 -.00000150  00000-0  86963-5 0  9994,2 51991  53.2153  96.4365 0001318  86.8850 273.2293 15.08835106 85960,6917.895,95.438,540.672,538.849,0.0
51991.0,STARLINK-3652,PAYLOAD,2023-09-27 19:03:11,15.08842,0.0001327,53.2163,91.9741,88.8561,271.2583,0.00017427,2.487e-05,0.0,0 STARLINK-3652,1 51991U 22025AM  23270.79388171  .00002487  00000-0  17427-3 0  9999,2 51991  53.2163  91.9741 0001327  88.8561 271.2583 15.08842000 87200,6917.874,95.437,540.657,538.821,0.0
51991.0,STARLINK-3652,PAYLOAD,2023-09-28 12:32:25,15.088424,0.000132,53.2164,88.7023,90.137,269.9774,0.00023994,3.533e-05,0.0,0 STARLINK-3652,1 51991U 22025AM  23271.52252286  .00003533  00000-0  23994-3 0  9997,2 51991  53.2164  88.7023 0001320  90.1370 269.9774 15.08842400 86226,6917.873,95.437,540.651,538.825,0.0
51991.0,STARLINK-3652,PAYLOAD,2023-09-28 18:53:58,15.08847538,0.0001308,53.2165,87.513,88.4394,271.6748,0.00028884,4.313e-05,0.0,0 STARLINK-3652,1 51991U 22025AM  23271.78748053  .00004313  00000-0  28884-3 0  9997,2 51991  53.2165  87.5130 0001308  88.4394 271.6748 15.08847538 86267,6917.857,95.437,540.627,538.817,0.0
51991.0,STARLINK-3652,PAYLOAD,2023-09-29 12:23:12,15.08844404,0.0001421,53.2175,84.2458,97.6541,262.4613,0.0001065,1.408e-05,0.0,0 STARLINK-3652,1 51991U 22025AM  23272.51612009  .00001408  00000-0  10650-3 0  9994,2 51991  53.2175  84.2458 0001421  97.6541 262.4613 15.08844404 86377,6917.867,95.437,540.715,538.749,0.0
51991.0,STARLINK-3652,PAYLOAD,2023-09-29 17:09:22,15.08845069,0.0001418,53.2176,83.3541,98.6062,261.509,0.00012231,1.659e-05,0.0,0 STARLINK-3652,1 51991U 22025AM  23272.71483966  .00001659  00000-0  12231-3 0  9999,2 51991  53.2176  83.3541 0001418  98.6062 261.5090 15.08845069 87497,6917.865,95.437,540.711,538.749,0.0
51991.0,STARLINK-3652,PAYLOAD,2023-09-29 21:55:31,15.08849377,0.0001373,53.2175,82.4607,90.4932,269.6217,0.00016686,2.369e-05,0.0,0 STARLINK-3652,1 51991U 22025AM  23272.91355690  .00002369  00000-0  16686-3 0  9990,2 51991  53.2175  82.4607 0001373  90.4932 269.6217 15.08849377 86434,6917.852,95.437,540.667,538.767,0.0
51991.0,STARLINK-3652,PAYLOAD,2023-09-30 10:38:36,15.08840097,0.0001532,53.2176,80.0824,86.1424,273.9744,-5.1428e-06,-3.7e-06,0.0,0 STARLINK-3652,1 51991U 22025AM  23273.44348187 -.00000370  00000-0 -51428-5 0  9999,2 51991  53.2176  80.0824 0001532  86.1424 273.9744 15.08840097 87608,6917.88,95.438,540.805,538.685,0.0
51991.0,STARLINK-3652,PAYLOAD,2023-10-01 10:29:23,15.08843875,0.0001488,53.2179,75.6248,82.3988,277.7173,6.7453e-05,7.86e-06,0.0,0 STARLINK-3652,1 51991U 22025AM  23274.43707996  .00000786  00000-0  67453-4 0  9999,2 51991  53.2179  75.6248 0001488  82.3988 277.7173 15.08843875 86664,6917.869,95.437,540.763,538.704,0.0
51991.0,STARLINK-3652,PAYLOAD,2023-10-01 18:26:19,15.08834351,0.0001292,53.217,74.1324,83.4272,276.6867,-3.2812e-05,-8.1e-06,0.0,0 STARLINK-3652,1 51991U 22025AM  23274.76828678 -.00000810  00000-0 -32812-4 0  9997,2 51991  53.2170  74.1324 0001292  83.4272 276.6867 15.08834351 87809,6917.898,95.438,540.656,538.869,0.0
51991.0,STARLINK-3652,PAYLOAD,2023-10-02 16:41:43,15.08845609,0.0001213,53.2171,69.9696,86.5046,273.6085,0.00017755,2.539e-05,0.0,0 STARLINK-3652,1 51991U 22025AM  23275.69564364  .00002539  00000-0  17755-3 0  9995,2 51991  53.2171  69.9696 0001213  86.5046 273.6085 15.08845609 87942,6917.863,95.437,540.567,538.889,0.0
51991.0,STARLINK-3652,PAYLOAD,2023-10-03 14:57:07,15.08839239,0.0001336,53.2169,65.8069,86.1973,273.9172,0.00014507,2.022e-05,0.0,0 STARLINK-3652,1 51991U 22025AM  23276.62300736  .00002022  00000-0  14507-3 0  9999,2 51991  53.2169  65.8069 0001336  86.1973 273.9172 15.08839239 86995,6917.883,95.438,540.672,538.823,0.0
51991.0,STARLINK-3652,PAYLOAD,2023-10-03 16:32:30,15.08844951,0.0001507,53.2176,65.5086,97.3861,262.7302,0.00027355,4.069e-05,0.0,0 STARLINK-3652,1 51991U 22025AM  23276.68924503  .00004069  00000-0  27355-3 0  9997,2 51991  53.2176  65.5086 0001507  97.3861 262.7302 15.08844951 88090,6917.865,95.437,540.773,538.688,0.0
51991.0,STARLINK-3652,PAYLOAD,2023-10-03 21:18:39,15.08850764,0.0001594,53.218,64.6167,95.355,264.7624,0.0002964,4.434e-05,0.0,0 STARLINK-3652,1 51991U 22025AM  23276.88796223  .00004434  00000-0  29640-3 0  9990,2 51991  53.2180  64.6167 0001594  95.3550 264.7624 15.08850764 87035,6917.847,95.437,540.815,538.61,0.0
51991.0,STARLINK-3652,PAYLOAD,2023-10-04 13:12:31,15.08845824,0.0001473,53.2168,61.6445,88.7889,271.3272,9.7006e-05,1.256e-05,0.0,0 STARLINK-3652,1 51991U 22025AM  23277.55036282  .00001256  00000-0  97006-4 0  9998,2 51991  53.2168  61.6445 0001473  88.7889 271.3272 15.08845824 87139,6917.863,95.437,540.747,538.709,0.0
51991.0,STARLINK-3652,PAYLOAD,2023-10-04 16:23:17,15.08851404,0.0001353,53.2173,61.05,82.2356,277.879,0.00017894,2.562e-05,0.0,0 STARLINK-3652,1 51991U 22025AM  23277.68284025  .00002562  00000-0  17894-3 0  9999,2 51991  53.2173  61.0500 0001353  82.2356 277.8790 15.08851404 87155,6917.846,95.437,540.647,538.775,0.0
51991.0,STARLINK-3652,PAYLOAD,2023-10-04 21:09:26,15.08856294,0.0001688,53.2165,60.1564,86.7521,273.3664,0.00029898,4.476e-05,0.0,0 STARLINK-3652,1 51991U 22025AM  23277.88155746  .00004476  00000-0  29898-3 0  9991,2 51991  53.2165  60.1564 0001688  86.7521 273.3664 15.08856294 88277,6917.831,95.437,540.863,538.528,0.0
51991.0,STARLINK-3652,PAYLOAD,2023-10-05 09:52:32,15.08831678,0.0001213,53.2197,57.7773,96.8681,263.2449,-0.0001157,-2.128e-05,0.0,0 STARLINK-3652,1 51991U 22025AM  23278.41148646 -.00002128  00000-0 -11570-3 0  9994,2 51991  53.2197  57.7773 0001213  96.8681 263.2449 15.08831678 88356,6917.906,95.438,540.61,538.932,0.0
51991.0,STARLINK-3652,PAYLOAD,2023-10-05 13:03:18,15.08838397,0.0001402,53.2178,57.1831,94.8233,265.2919,4.9266e-05,4.96e-06,0.0,0 STARLINK-3652,1 51991U 22025AM  23278.54396510  .00000496  00000-0  49266-4 0  9991,2 51991  53.2178  57.1831 0001402  94.8233 265.2919 15.08838397 87285,6917.885,95.438,540.72,538.78,0.0
51991.0,STARLINK-3652,PAYLOAD,2023-10-05 16:14:04,15.08846626,0.000136,53.2176,56.5893,86.6477,273.4671,0.00048711,7.474e-05,0.0,0 STARLINK-3652,1 51991U 22025AM  23278.67644352  .00007474  00000-0  48711-3 0  9991,2 51991  53.2176  56.5893 0001360  86.6477 273.4671 15.08846626 88399,6917.86,95.437,540.666,538.784,0.0
51991.0,STARLINK-3652,PAYLOAD,2023-10-06 09:43:19,15.08833056,9.89e-05,53.2181,53.3213,73.7097,286.4004,0.00034024,5.13e-05,0.0,0 STARLINK-3652,1 51991U 22025AM  23279.40509167  .00005130  00000-0  34024-3 0  9996,2 51991  53.2181  53.3213 0000989  73.7097 286.4004 15.08833056 88507,6917.902,95.438,540.451,539.082,0.0
51991.0,STARLINK-3652,PAYLOAD,2023-10-06 12:54:06,15.08836144,0.0001243,53.219,52.7281,88.1799,271.9336,0.00021886,3.197e-05,0.0,0 STARLINK-3652,1 51991U 22025AM  23279.53757152  .00003197  00000-0  21886-3 0  9992,2 51991  53.2190  52.7281 0001243  88.1799 271.9336 15.08836144 87437,6917.892,95.438,540.617,538.897,0.0
51991.0,STARLINK-3652,PAYLOAD,2023-10-06 16:04:52,15.08840644,0.0001219,53.2167,52.1306,84.7526,275.3605,0.00040987,6.241e-05,0.0,0 STARLINK-3652,1 51991U 22025AM  23279.67005064  .00006241  00000-0  40987-3 0  9991,2 51991  53.2167  52.1306 0001219  84.7526 275.3605 15.08840644 87455,6917.878,95.438,540.587,538.9,0.0
51991.0,STARLINK-3652,PAYLOAD,2023-10-07 14:20:16,15.08845524,0.000142,53.2187,47.9699,97.3263,262.789,0.00030642,4.593e-05,0.0,0 STARLINK-3652,1 51991U 22025AM  23280.59741045  .00004593  00000-0  30642-3 0  9995,2 51991  53.2187  47.9699 0001420  97.3263 262.7890 15.08845524 87599,6917.864,95.437,540.711,538.746,0.0
51991.0,STARLINK-3652,PAYLOAD,2023-10-07 19:06:25,15.08849199,0.0001331,53.2183,47.0764,92.5189,267.5956,0.00033143,4.992e-05,0.0,0 STARLINK-3652,1 51991U 22025AM  23280.79612873  .00004992  00000-0  33143-3 0  9995,2 51991  53.2183  47.0764 0001331  92.5189 267.5956 15.08849199 88717,6917.852,95.437,540.638,538.797,0.0
51991.0,STARLINK-3652,PAYLOAD,2023-10-08 01:27:58,15.08839184,0.0001264,53.2177,45.8865,91.1094,269.0043,0.00014081,1.954e-05,0.0,0 STARLINK-3652,1 51991U 22025AM  23281.06109171  .00001954  00000-0  14081-3 0  9993,2 51991  53.2177  45.8865 0001264  91.1094 269.0043 15.08839184 88754,6917.883,95.438,540.622,538.873,0.0
51991.0,STARLINK-3652,PAYLOAD,2023-10-08 14:11:03,15.08841603,0.000169,53.2187,43.5074,93.3953,266.7233,0.00010838,1.437e-05,0.0,0 STARLINK-3652,1 51991U 22025AM  23281.59101330  .00001437  00000-0  10838-3 0  9992,2 51991  53.2187  43.5074 0001690  93.3953 266.7233 15.08841603 87745,6917.875,95.437,540.91,538.571,0.0
